{
  "type": "FeatureCollection",
  "features": [
    {
      "type": "Feature",
      "properties": {
        "norad_id": 66510,
        "name": "STARLINK-35600",
        "group": "last-30-days",
        "lat": -25.711683159288178,
        "lon": -30.875404937775226,
        "alt_km": 416.48656361405574,
        "timestamp": "2025-12-13T22:39:28.443347+00:00",
        "meta_object_name": "STARLINK-35600",
        "meta_object_id": "2025-263AB",
        "meta_epoch": "2025-12-12T17:53:30.772320",
        "meta_mean_motion": 15.50611887,
        "meta_eccentricity": 0.00013691,
        "meta_inclination": 42.9963,
        "meta_ra_of_asc_node": 125.0214,
        "meta_arg_of_pericenter": 302.8543,
        "meta_mean_anomaly": 57.2185,
        "meta_ephemeris_type": 0,
        "meta_classification_type": "U",
        "meta_norad_cat_id": 66510,
        "meta_element_set_no": 999,
        "meta_rev_at_epoch": 556,
        "meta_bstar": 0.0020880843,
        "meta_mean_motion_dot": 0.00124265,
        "meta_mean_motion_ddot": 0,
        "tle_line1": "1 66510U 25263AB  25346.74549505  .00124265  00000+0  20881-2 0  9995",
        "tle_line2": "2 66510  42.9963 125.0214 0001369 302.8543  57.2185 15.50611887  5568"
      },
      "geometry": {
        "type": "Point",
        "coordinates": [
          -30.875404937775226,
          -25.711683159288178
        ]
      }
    },
    {
      "type": "Feature",
      "properties": {
        "norad_id": 66511,
        "name": "STARLINK-35444",
        "group": "last-30-days",
        "lat": -27.84933679682615,
        "lon": -27.45654721832436,
        "alt_km": 416.8724460938902,
        "timestamp": "2025-12-13T22:39:28.443357+00:00",
        "meta_object_name": "STARLINK-35444",
        "meta_object_id": "2025-263AC",
        "meta_epoch": "2025-12-12T17:52:31.597824",
        "meta_mean_motion": 15.50601736,
        "meta_eccentricity": 9.972e-05,
        "meta_inclination": 42.9961,
        "meta_ra_of_asc_node": 125.0166,
        "meta_arg_of_pericenter": 316.6699,
        "meta_mean_anomaly": 43.4083,
        "meta_ephemeris_type": 0,
        "meta_classification_type": "U",
        "meta_norad_cat_id": 66511,
        "meta_element_set_no": 999,
        "meta_rev_at_epoch": 556,
        "meta_bstar": 0.0018978233,
        "meta_mean_motion_dot": 0.00112702,
        "meta_mean_motion_ddot": 0,
        "tle_line1": "1 66511U 25263AC  25346.74481016  .00112702  00000+0  18978-2 0  9995",
        "tle_line2": "2 66511  42.9961 125.0166 0000997 316.6699  43.4083 15.50601736  5560"
      },
      "geometry": {
        "type": "Point",
        "coordinates": [
          -27.45654721832436,
          -27.84933679682615
        ]
      }
    },
    {
      "type": "Feature",
      "properties": {
        "norad_id": 66512,
        "name": "STARLINK-35366",
        "group": "last-30-days",
        "lat": -29.96491772824454,
        "lon": -23.79132202500135,
        "alt_km": 416.47143573185076,
        "timestamp": "2025-12-13T22:39:28.443368+00:00",
        "meta_object_name": "STARLINK-35366",
        "meta_object_id": "2025-263AD",
        "meta_epoch": "2025-12-12T17:51:31.717440",
        "meta_mean_motion": 15.50629709,
        "meta_eccentricity": 0.00023747,
        "meta_inclination": 43.0001,
        "meta_ra_of_asc_node": 125.0098,
        "meta_arg_of_pericenter": 292.0069,
        "meta_mean_anomaly": 68.0538,
        "meta_ephemeris_type": 0,
        "meta_classification_type": "U",
        "meta_norad_cat_id": 66512,
        "meta_element_set_no": 999,
        "meta_rev_at_epoch": 556,
        "meta_bstar": 0.0015483042,
        "meta_mean_motion_dot": 0.00091731,
        "meta_mean_motion_ddot": 0,
        "tle_line1": "1 66512U 25263AD  25346.74411710  .00091731  00000+0  15483-2 0  9996",
        "tle_line2": "2 66512  43.0001 125.0098 0002374 292.0069  68.0538 15.50629709  5569"
      },
      "geometry": {
        "type": "Point",
        "coordinates": [
          -23.79132202500135,
          -29.96491772824454
        ]
      }
    },
    {
      "type": "Feature",
      "properties": {
        "norad_id": 66513,
        "name": "STARLINK-35692",
        "group": "last-30-days",
        "lat": -26.76881292837107,
        "lon": -29.221534654144413,
        "alt_km": 416.473547535682,
        "timestamp": "2025-12-13T22:39:28.443378+00:00",
        "meta_object_name": "STARLINK-35692",
        "meta_object_id": "2025-263AE",
        "meta_epoch": "2025-12-12T20:58:31.218816",
        "meta_mean_motion": 15.50638121,
        "meta_eccentricity": 0.00017682,
        "meta_inclination": 43.0003,
        "meta_ra_of_asc_node": 124.2658,
        "meta_arg_of_pericenter": 293.0905,
        "meta_mean_anomaly": 66.9769,
        "meta_ephemeris_type": 0,
        "meta_classification_type": "U",
        "meta_norad_cat_id": 66513,
        "meta_element_set_no": 999,
        "meta_rev_at_epoch": 558,
        "meta_bstar": 0.0017244336,
        "meta_mean_motion_dot": 0.00102372,
        "meta_mean_motion_ddot": 0,
        "tle_line1": "1 66513U 25263AE  25346.87397244  .00102372  00000+0  17244-2 0  9997",
        "tle_line2": "2 66513  43.0003 124.2658 0001768 293.0905  66.9769 15.50638121  5584"
      },
      "geometry": {
        "type": "Point",
        "coordinates": [
          -29.221534654144413,
          -26.76881292837107
        ]
      }
    },
    {
      "type": "Feature",
      "properties": {
        "norad_id": 66514,
        "name": "SENTINEL-6B",
        "group": "last-30-days",
        "lat": -59.312676103102994,
        "lon": 28.46232070521216,
        "alt_km": 1336.0455733269646,
        "timestamp": "2025-12-13T22:39:28.443394+00:00",
        "meta_object_name": "SENTINEL-6B",
        "meta_object_id": "2025-264A",
        "meta_epoch": "2025-12-12T06:01:21.430272",
        "meta_mean_motion": 12.81479583,
        "meta_eccentricity": 0.00078489,
        "meta_inclination": 66.0385,
        "meta_ra_of_asc_node": 163.4531,
        "meta_arg_of_pericenter": 270.1768,
        "meta_mean_anomaly": 89.8348,
        "meta_ephemeris_type": 0,
        "meta_classification_type": "U",
        "meta_norad_cat_id": 66514,
        "meta_element_set_no": 999,
        "meta_rev_at_epoch": 322,
        "meta_bstar": 0.00019742237,
        "meta_mean_motion_dot": -1.5e-07,
        "meta_mean_motion_ddot": 0,
        "tle_line1": "1 66514U 25264A   25346.25094248 -.00000015  00000+0  19742-3 0  9997",
        "tle_line2": "2 66514  66.0385 163.4531 0007848 270.1768  89.8348 12.81479583  3228"
      },
      "geometry": {
        "type": "Point",
        "coordinates": [
          28.46232070521216,
          -59.312676103102994
        ]
      }
    },
    {
      "type": "Feature",
      "properties": {
        "norad_id": 66516,
        "name": "STARLINK-35924",
        "group": "last-30-days",
        "lat": -33.65065423821125,
        "lon": 1.5867351040245001,
        "alt_km": 446.209043126898,
        "timestamp": "2025-12-13T22:39:28.443405+00:00",
        "meta_object_name": "STARLINK-35924",
        "meta_object_id": "2025-265A",
        "meta_epoch": "2025-12-13T06:00:02.000160",
        "meta_mean_motion": 15.406349,
        "meta_eccentricity": 0.00015224,
        "meta_inclination": 43.0007,
        "meta_ra_of_asc_node": 51.1759,
        "meta_arg_of_pericenter": 254.9973,
        "meta_mean_anomaly": 156.5654,
        "meta_ephemeris_type": 0,
        "meta_classification_type": "U",
        "meta_norad_cat_id": 66516,
        "meta_element_set_no": 999,
        "meta_rev_at_epoch": 505,
        "meta_bstar": 0.0013771607,
        "meta_mean_motion_dot": 0.00057534,
        "meta_mean_motion_ddot": 0,
        "tle_line1": "1 66516U 25265A   25347.25002315  .00057534  00000+0  13772-2 0  9998",
        "tle_line2": "2 66516  43.0007  51.1759 0001522 254.9973 156.5654 15.40634900  5051"
      },
      "geometry": {
        "type": "Point",
        "coordinates": [
          1.5867351040245001,
          -33.65065423821125
        ]
      }
    },
    {
      "type": "Feature",
      "properties": {
        "norad_id": 66517,
        "name": "STARLINK-35937",
        "group": "last-30-days",
        "lat": 19.870114661612117,
        "lon": 69.79075275222654,
        "alt_km": 411.9768571576815,
        "timestamp": "2025-12-13T22:39:28.443416+00:00",
        "meta_object_name": "STARLINK-35937",
        "meta_object_id": "2025-265B",
        "meta_epoch": "2025-12-13T05:31:33.568896",
        "meta_mean_motion": 15.50674957,
        "meta_eccentricity": 0.00016199,
        "meta_inclination": 42.9998,
        "meta_ra_of_asc_node": 51.1481,
        "meta_arg_of_pericenter": 242.5485,
        "meta_mean_anomaly": 117.521,
        "meta_ephemeris_type": 0,
        "meta_classification_type": "U",
        "meta_norad_cat_id": 66517,
        "meta_element_set_no": 999,
        "meta_rev_at_epoch": 383,
        "meta_bstar": 0.001994927,
        "meta_mean_motion_dot": 0.00118891,
        "meta_mean_motion_ddot": 0,
        "tle_line1": "1 66517U 25265B   25347.23024964  .00118891  00000+0  19949-2 0  9997",
        "tle_line2": "2 66517  42.9998  51.1481 0001619 242.5485 117.5210 15.50674957  3835"
      },
      "geometry": {
        "type": "Point",
        "coordinates": [
          69.79075275222654,
          19.870114661612117
        ]
      }
    }
  ]
}